[{"OBJECT_NAME":"STARLINK-4293","OBJECT_ID":"2022-076D","EPOCH":"2026-03-09T11:34:38.064000","MEAN_MOTION":15.08841938,"ECCENTRICITY":0.00012872,"INCLINATION":53.2169,"RA_OF_ASC_NODE":105.051,"ARG_OF_PERICENTER":87.2583,"MEAN_ANOMALY":272.8556,"EPHEMERIS_TYPE":0,"CLASSIFICATION_TYPE":"U","NORAD_CAT_ID":52989,"ELEMENT_SET_NO":999,"REV_AT_EPOCH":20267,"BSTAR":4.3883411e-5,"MEAN_MOTION_DOT":4.11e-6,"MEAN_MOTION_DDOT":0},{"OBJECT_NAME":"CZ-6A DEB","OBJECT_ID":"2024-140YT","EPOCH":"2026-03-09T15:08:50.355168","MEAN_MOTION":14.80324244,"ECCENTRICITY":0.0130576,"INCLINATION":89.1165,"RA_OF_ASC_NODE":289.1796,"ARG_OF_PERICENTER":182.674,"MEAN_ANOMALY":177.3803,"EPHEMERIS_TYPE":0,"CLASSIFICATION_TYPE":"U","NORAD_CAT_ID":61426,"ELEMENT_SET_NO":999,"REV_AT_EPOCH":8306,"BSTAR":0.0013152,"MEAN_MOTION_DOT":0.00011629,"MEAN_MOTION_DDOT":0}]
